[{"OBJECT_NAME":"STARLINK-2516","OBJECT_ID":"2021-036H","EPOCH":"2026-03-09T22:55:20.656416","MEAN_MOTION":15.30221874,"ECCENTRICITY":0.00018919,"INCLINATION":53.1591,"RA_OF_ASC_NODE":74.1373,"ARG_OF_PERICENTER":109.1584,"MEAN_ANOMALY":250.9622,"EPHEMERIS_TYPE":0,"CLASSIFICATION_TYPE":"U","NORAD_CAT_ID":48283,"ELEMENT_SET_NO":999,"REV_AT_EPOCH":26845,"BSTAR":0.001005498,"MEAN_MOTION_DOT":0.0002956,"MEAN_MOTION_DDOT":0},{"OBJECT_NAME":"COSMOS 1953","OBJECT_ID":"1988-050A","EPOCH":"2026-03-09T18:09:26.993952","MEAN_MOTION":15.28528086,"ECCENTRICITY":0.00124769,"INCLINATION":82.5105,"RA_OF_ASC_NODE":158.18,"ARG_OF_PERICENTER":122.2454,"MEAN_ANOMALY":237.9996,"EPHEMERIS_TYPE":0,"CLASSIFICATION_TYPE":"U","NORAD_CAT_ID":19210,"ELEMENT_SET_NO":999,"REV_AT_EPOCH":3779,"BSTAR":0.00029210954,"MEAN_MOTION_DOT":8.158e-5,"MEAN_MOTION_DDOT":0}]
